<?xml version="1.0" encoding="utf-8"?><gpx creator="Garmin Desktop App" version="1.1" xsi:schemaLocation="http://www.topografix.com/GPX/1/1 http://www.topografix.com/GPX/1/1/gpx.xsd http://www.garmin.com/xmlschemas/WaypointExtension/v1 http://www8.garmin.com/xmlschemas/WaypointExtensionv1.xsd http://www.garmin.com/xmlschemas/TrackPointExtension/v1 http://www.garmin.com/xmlschemas/TrackPointExtensionv1.xsd http://www.garmin.com/xmlschemas/GpxExtensions/v3 http://www8.garmin.com/xmlschemas/GpxExtensionsv3.xsd http://www.garmin.com/xmlschemas/ActivityExtension/v1 http://www8.garmin.com/xmlschemas/ActivityExtensionv1.xsd http://www.garmin.com/xmlschemas/AdventuresExtensions/v1 http://www8.garmin.com/xmlschemas/AdventuresExtensionv1.xsd http://www.garmin.com/xmlschemas/PressureExtension/v1 http://www.garmin.com/xmlschemas/PressureExtensionv1.xsd http://www.garmin.com/xmlschemas/TripExtensions/v1 http://www.garmin.com/xmlschemas/TripExtensionsv1.xsd http://www.garmin.com/xmlschemas/TripMetaDataExtensions/v1 http://www.garmin.com/xmlschemas/TripMetaDataExtensionsv1.xsd http://www.garmin.com/xmlschemas/ViaPointTransportationModeExtensions/v1 http://www.garmin.com/xmlschemas/ViaPointTransportationModeExtensionsv1.xsd http://www.garmin.com/xmlschemas/CreationTimeExtension/v1 http://www.garmin.com/xmlschemas/CreationTimeExtensionsv1.xsd http://www.garmin.com/xmlschemas/AccelerationExtension/v1 http://www.garmin.com/xmlschemas/AccelerationExtensionv1.xsd http://www.garmin.com/xmlschemas/PowerExtension/v1 http://www.garmin.com/xmlschemas/PowerExtensionv1.xsd http://www.garmin.com/xmlschemas/VideoExtension/v1 http://www.garmin.com/xmlschemas/VideoExtensionv1.xsd" xmlns="http://www.topografix.com/GPX/1/1" xmlns:xsi="http://www.w3.org/2001/XMLSchema-instance" xmlns:wptx1="http://www.garmin.com/xmlschemas/WaypointExtension/v1" xmlns:gpxtrx="http://www.garmin.com/xmlschemas/GpxExtensions/v3" xmlns:gpxtpx="http://www.garmin.com/xmlschemas/TrackPointExtension/v1" xmlns:gpxx="http://www.garmin.com/xmlschemas/GpxExtensions/v3" xmlns:trp="http://www.garmin.com/xmlschemas/TripExtensions/v1" xmlns:adv="http://www.garmin.com/xmlschemas/AdventuresExtensions/v1" xmlns:prs="http://www.garmin.com/xmlschemas/PressureExtension/v1" xmlns:tmd="http://www.garmin.com/xmlschemas/TripMetaDataExtensions/v1" xmlns:vptm="http://www.garmin.com/xmlschemas/ViaPointTransportationModeExtensions/v1" xmlns:ctx="http://www.garmin.com/xmlschemas/CreationTimeExtension/v1" xmlns:gpxacc="http://www.garmin.com/xmlschemas/AccelerationExtension/v1" xmlns:gpxpx="http://www.garmin.com/xmlschemas/PowerExtension/v1" xmlns:vidx1="http://www.garmin.com/xmlschemas/VideoExtension/v1">

  <metadata>
    <link href="http://www.garmin.com">
      <text>Garmin International</text>
    </link>
    <time>2026-06-20T11:08:43Z</time>
    <bounds maxlat="29.469107072800398" maxlon="55.692138243466616" minlat="29.465948436409235" minlon="55.685863383114338" />
  </metadata>

  <trk>
    <name>2026-06-20 08:25:49</name>
    <extensions>
      <gpxx:TrackExtension>
        <gpxx:DisplayColor>Magenta</gpxx:DisplayColor>
      </gpxx:TrackExtension>
      <gpxtrkx:TrackStatsExtension xmlns:gpxtrkx="http://www.garmin.com/xmlschemas/TrackStatsExtension/v1">
        <gpxtrkx:Distance>705</gpxtrkx:Distance>
      </gpxtrkx:TrackStatsExtension>
    </extensions>
    <trkseg>
      <trkpt lat="29.469107072800398" lon="55.692138243466616">
        <ele>1760.3099999999999</ele>
        <time>2026-06-20T03:45:42Z</time>
      </trkpt>
      <trkpt lat="29.469106653705239" lon="55.692137908190489">
        <ele>1760.3099999999999</ele>
        <time>2026-06-20T03:45:43Z</time>
      </trkpt>
      <trkpt lat="29.469099696725607" lon="55.692135980352759">
        <ele>1760.3099999999999</ele>
        <time>2026-06-20T03:45:52Z</time>
      </trkpt>
      <trkpt lat="29.469095673412085" lon="55.692134387791157">
        <ele>1760.3099999999999</ele>
        <time>2026-06-20T03:46:18Z</time>
      </trkpt>
      <trkpt lat="29.469041358679533" lon="55.692106727510691">
        <ele>1760.3099999999999</ele>
        <time>2026-06-20T03:46:38Z</time>
      </trkpt>
      <trkpt lat="29.469003975391388" lon="55.69203732535243">
        <ele>1760.3099999999999</ele>
        <time>2026-06-20T03:46:42Z</time>
      </trkpt>
      <trkpt lat="29.468950582668185" lon="55.691890474408865">
        <ele>1760.3099999999999</ele>
        <time>2026-06-20T03:47:03Z</time>
      </trkpt>
      <trkpt lat="29.468920743092895" lon="55.691684279590845">
        <ele>1759.3499999999999</ele>
        <time>2026-06-20T03:47:29Z</time>
      </trkpt>
      <trkpt lat="29.468655874952674" lon="55.691283289343119">
        <ele>1758.8699999999999</ele>
        <time>2026-06-20T03:47:52Z</time>
      </trkpt>
      <trkpt lat="29.468469209969044" lon="55.690957736223936">
        <ele>1758.8699999999999</ele>
        <time>2026-06-20T03:48:20Z</time>
      </trkpt>
      <trkpt lat="29.468369800597429" lon="55.690744165331125">
        <ele>1758.8699999999999</ele>
        <time>2026-06-20T03:48:43Z</time>
      </trkpt>
      <trkpt lat="29.46819051168859" lon="55.690402518957853">
        <ele>1758.3900000000001</ele>
        <time>2026-06-20T03:49:09Z</time>
      </trkpt>
      <trkpt lat="29.4680380448699" lon="55.69004368968308">
        <ele>1758.3900000000001</ele>
        <time>2026-06-20T03:49:33Z</time>
      </trkpt>
      <trkpt lat="29.467836376279593" lon="55.689726267009974">
        <ele>1757.9100000000001</ele>
        <time>2026-06-20T03:49:56Z</time>
      </trkpt>
      <trkpt lat="29.467660607770085" lon="55.68936257623136">
        <ele>1757.4300000000001</ele>
        <time>2026-06-20T03:50:24Z</time>
      </trkpt>
      <trkpt lat="29.467522390186787" lon="55.689024785533547">
        <ele>1756.95</ele>
        <time>2026-06-20T03:50:49Z</time>
      </trkpt>
      <trkpt lat="29.467384172603488" lon="55.688721695914865">
        <ele>1755.99</ele>
        <time>2026-06-20T03:51:12Z</time>
      </trkpt>
      <trkpt lat="29.467355003580451" lon="55.68867601454258">
        <ele>1757.4300000000001</ele>
        <time>2026-06-20T03:51:16Z</time>
      </trkpt>
      <trkpt lat="29.467214271426201" lon="55.688346773386002">
        <ele>1756.47</ele>
        <time>2026-06-20T03:51:42Z</time>
      </trkpt>
      <trkpt lat="29.467047052457929" lon="55.688007473945618">
        <ele>1755.99</ele>
        <time>2026-06-20T03:52:06Z</time>
      </trkpt>
      <trkpt lat="29.466900620609522" lon="55.687694996595383">
        <ele>1755.5</ele>
        <time>2026-06-20T03:52:31Z</time>
      </trkpt>
      <trkpt lat="29.46672854013741" lon="55.687388721853495">
        <ele>1755.02</ele>
        <time>2026-06-20T03:52:54Z</time>
      </trkpt>
      <trkpt lat="29.466584958136082" lon="55.687048081308603">
        <ele>1754.54</ele>
        <time>2026-06-20T03:53:20Z</time>
      </trkpt>
      <trkpt lat="29.466444812715054" lon="55.686742393299937">
        <ele>1754.0599999999999</ele>
        <time>2026-06-20T03:53:43Z</time>
      </trkpt>
      <trkpt lat="29.466370716691017" lon="55.686599146574736">
        <ele>1755.99</ele>
        <time>2026-06-20T03:53:55Z</time>
      </trkpt>
      <trkpt lat="29.466352108865976" lon="55.686567630618811">
        <ele>1754.0599999999999</ele>
        <time>2026-06-20T03:53:57Z</time>
      </trkpt>
      <trkpt lat="29.466202659532428" lon="55.6862538959831">
        <ele>1753.5799999999999</ele>
        <time>2026-06-20T03:54:23Z</time>
      </trkpt>
      <trkpt lat="29.46608598344028" lon="55.685986680909991">
        <ele>1753.5799999999999</ele>
        <time>2026-06-20T03:54:47Z</time>
      </trkpt>
      <trkpt lat="29.465948436409235" lon="55.685863383114338">
        <ele>1753.0999999999999</ele>
        <time>2026-06-20T03:55:07Z</time>
      </trkpt>
      <trkpt lat="29.465957153588533" lon="55.68586447276175">
        <ele>1753.0999999999999</ele>
        <time>2026-06-20T03:55:37Z</time>
      </trkpt>
      <trkpt lat="29.465974504128098" lon="55.685865394771099">
        <ele>1754.54</ele>
        <time>2026-06-20T03:55:50Z</time>
      </trkpt>
    </trkseg>
  </trk>

</gpx>